COMMENT,ORIGINATOR,NORAD_CAT_ID,OBJECT_NAME,OBJECT_TYPE,CLASSIFICATION_TYPE,INTLDES,EPOCH,EPOCH_MICROSECONDS,MEAN_MOTION,ECCENTRICITY,INCLINATION,RA_OF_ASC_NODE,ARG_OF_PERICENTER,MEAN_ANOMALY,EPHEMERIS_TYPE,ELEMENT_SET_NO,REV_AT_EPOCH,BSTAR,MEAN_MOTION_DOT,MEAN_MOTION_DDOT,FILE,TLE_LINE0,TLE_LINE1,TLE_LINE2,OBJECT_ID,OBJECT_NUMBER,SEMIMAJOR_AXIS,PERIOD,APOGEE,PERIGEE,DECAYED,date
GENERATED VIA SPACETRACK.ORG API,18 SPCS,52183,SPACEBEE-133,PAYLOAD,U,22033AC,2023/3/30 5:32,872864,15.38358931,0.0006302,97.3516,172.4366,100.0319,260.1637,0,999,5529,0.0019178,0.00073089,0,3875085,0 SPACEBEE-133,1 52183U 22033AC  23089.23085501  .00073089  00000-0  19178-2 0  9990,2 52183  97.3516 172.4366 0006302 100.0319 260.1637 15.38358931 55298,2022-033AC,52183,6829.099,93.606,455.267,446.66,1,
GENERATED VIA SPACETRACK.ORG API,18 SPCS,52183,SPACEBEE-133,PAYLOAD,U,22033AC,2023/3/30 18:01,145344,15.38433419,0.0006244,97.3511,172.9585,97.7623,262.4331,0,999,5538,0.0021741,0.00083176,0,3875726,0 SPACEBEE-133,1 52183U 22033AC  23089.75121696  .00083176  00000-0  21741-2 0  9990,2 52183  97.3511 172.9585 0006244  97.7623 262.4331 15.38433419 55387,2022-033AC,52183,6828.878,93.602,455.007,446.479,1,
GENERATED VIA SPACETRACK.ORG API,18 SPCS,52183,SPACEBEE-133,PAYLOAD,U,22033AC,2023/3/31 11:12,33984,15.38550389,0.0006148,97.3513,173.6758,95.5479,264.6467,0,999,5548,0.0022224,0.00085372,0,3876359,0 SPACEBEE-133,1 52183U 22033AC  23090.46666706  .00085372  00000-0  22224-2 0  9993,2 52183  97.3513 173.6758 0006148  95.5479 264.6467 15.38550389 55488,2022-033AC,52183,6828.532,93.595,454.595,446.199,1,
GENERATED VIA SPACETRACK.ORG API,18 SPCS,52183,SPACEBEE-133,PAYLOAD,U,22033AC,2023/4/1 4:22,563744,15.38656785,0.0006034,97.3515,174.3925,93.6362,266.5573,0,999,5559,0.0019638,0.00075592,0,3876900,0 SPACEBEE-133,1 52183U 22033AC  23091.18206671  .00075592  00000-0  19638-2 0  9992,2 52183  97.3515 174.3925 0006034  93.6362 266.5573 15.38656785 55596,2022-033AC,52183,6828.217,93.588,454.203,445.962,1,
GENERATED VIA SPACETRACK.ORG API,18 SPCS,52183,SPACEBEE-133,PAYLOAD,U,22033AC,2023/4/1 4:22,563744,15.38656785,0.0006034,97.3515,174.3925,93.6362,266.5573,0,999,5560,0.0019638,0.00075592,0,3877270,0 SPACEBEE-133,1 52183U 22033AC  23091.18206671  .00075592  00000-0  19638-2 0  9992,2 52183  97.3515 174.3925 0006034  93.6362 266.5573 15.38656785 55608,2022-033AC,52183,6828.217,93.588,454.203,445.962,1,
GENERATED VIA SPACETRACK.ORG API,18 SPCS,52183,SPACEBEE-133,PAYLOAD,U,22033AC,2023/4/1 18:24,967936,15.38730611,0.000597,97.3516,174.9799,90.9416,269.2513,0,999,5568,0.0018871,0.00072784,0,3877479,0 SPACEBEE-133,1 52183U 22033AC  23091.76736074  .00072784  00000-0  18871-2 0  9999,2 52183  97.3516 174.9799 0005970  90.9416 269.2513 15.38730611 55685,2022-033AC,52183,6827.999,93.584,453.94,445.788,1,
GENERATED VIA SPACETRACK.ORG API,18 SPCS,52183,SPACEBEE-133,PAYLOAD,U,22033AC,2023/4/1 18:24,967936,15.38730611,0.000597,97.3516,174.9799,90.9416,269.2513,0,999,5569,0.0018871,0.00072784,0,3877516,0 SPACEBEE-133,1 52183U 22033AC  23091.76736074  .00072784  00000-0  18871-2 0  9999,2 52183  97.3516 174.9799 0005970  90.9416 269.2513 15.38730611 55696,2022-033AC,52183,6827.999,93.584,453.94,445.788,1,
GENERATED VIA SPACETRACK.ORG API,18 SPCS,52183,SPACEBEE-133,PAYLOAD,U,22033AC,2023/4/2 5:20,846688,15.38798623,0.000597,97.3518,175.4361,90.0691,270.1239,0,999,5576,0.0019009,0.00073486,0,3878126,0 SPACEBEE-133,1 52183U 22033AC  23092.22256767  .00073486  00000-0  19009-2 0  9991,2 52183  97.3518 175.4361 0005970  90.0691 270.1239 15.38798623 55766,2022-033AC,52183,6827.798,93.579,453.739,445.587,1,
GENERATED VIA SPACETRACK.ORG API,18 SPCS,52183,SPACEBEE-133,PAYLOAD,U,22033AC,2023/4/2 19:23,528256,15.38867059,0.0005868,97.3517,176.0231,87.5196,272.6721,0,999,5584,0.0013971,0.00053971,0,3878360,0 SPACEBEE-133,1 52183U 22033AC  23092.80780704  .00053971  00000-0  13971-2 0  9997,2 52183  97.3517 176.0231 0005868  87.5196 272.6721 15.38867059 55847,2022-033AC,52183,6827.595,93.575,453.467,445.454,1,
GENERATED VIA SPACETRACK.ORG API,18 SPCS,52183,SPACEBEE-133,PAYLOAD,U,22033AC,2023/4/2 19:23,528256,15.38867059,0.0005868,97.3517,176.0231,87.5196,272.6721,0,999,5585,0.0013971,0.00053971,0,3878419,0 SPACEBEE-133,1 52183U 22033AC  23092.80780704  .00053971  00000-0  13971-2 0  9997,2 52183  97.3517 176.0231 0005868  87.5196 272.6721 15.38867059 55858,2022-033AC,52183,6827.595,93.575,453.467,445.454,1,
GENERATED VIA SPACETRACK.ORG API,18 SPCS,52183,SPACEBEE-133,PAYLOAD,U,22033AC,2023/4/3 4:45,981952,15.38921994,0.0005831,97.3517,176.4143,86.5311,273.6601,0,999,5590,0.0017743,0.00068819,0,3878947,0 SPACEBEE-133,1 52183U 22033AC  23093.19795118  .00068819  00000-0  17743-2 0  9993,2 52183  97.3517 176.4143 0005831  86.5311 273.6601 15.38921994 55905,2022-033AC,52183,6827.433,93.572,453.279,445.317,1,
GENERATED VIA SPACETRACK.ORG API,18 SPCS,52183,SPACEBEE-133,PAYLOAD,U,22033AC,2023/4/3 4:45,981952,15.38921994,0.0005831,97.3517,176.4143,86.5311,273.6601,0,999,5591,0.0017743,0.00068819,0,3879059,0 SPACEBEE-133,1 52183U 22033AC  23093.19795118  .00068819  00000-0  17743-2 0  9993,2 52183  97.3517 176.4143 0005831  86.5311 273.6601 15.38921994 55916,2022-033AC,52183,6827.433,93.572,453.279,445.317,1,
GENERATED VIA SPACETRACK.ORG API,18 SPCS,52183,SPACEBEE-133,PAYLOAD,U,22033AC,2023/4/3 15:40,175232,15.38972862,0.0005828,97.3516,176.8714,84.0375,276.1535,0,999,5597,0.0015806,0.00061339,0,3879288,0 SPACEBEE-133,1 52183U 22033AC  23093.65310388  .00061339  00000-0  15806-2 0  9994,2 52183  97.3516 176.8714 0005828  84.0375 276.1535 15.38972862 55972,2022-033AC,52183,6827.282,93.569,453.126,445.168,1,
GENERATED VIA SPACETRACK.ORG API,18 SPCS,52183,SPACEBEE-133,PAYLOAD,U,22033AC,2023/4/3 15:40,175232,15.38972862,0.0005828,97.3516,176.8714,84.0375,276.1535,0,999,5598,0.0015806,0.00061339,0,3879321,0 SPACEBEE-133,1 52183U 22033AC  23093.65310388  .00061339  00000-0  15806-2 0  9994,2 52183  97.3516 176.8714 0005828  84.0375 276.1535 15.38972862 55983,2022-033AC,52183,6827.282,93.569,453.126,445.168,1,
GENERATED VIA SPACETRACK.ORG API,18 SPCS,52183,SPACEBEE-133,PAYLOAD,U,22033AC,2023/4/5 5:07,294080,15.39186239,0.0005708,97.3514,178.4364,79.3069,280.8819,0,999,5621,0.0016365,0.00063975,0,3880539,0 SPACEBEE-133,1 52183U 22033AC  23095.21348720  .00063975  00000-0  16365-2 0  9998,2 52183  97.3514 178.4364 0005708  79.3069 280.8819 15.39186239 56214,2022-033AC,52183,6826.651,93.556,452.413,444.62,1,
GENERATED VIA SPACETRACK.ORG API,18 SPCS,52183,SPACEBEE-133,PAYLOAD,U,22033AC,2023/4/5 5:07,294080,15.39186239,0.0005708,97.3514,178.4364,79.3069,280.8819,0,999,5622,0.0016365,0.00063975,0,3880853,0 SPACEBEE-133,1 52183U 22033AC  23095.21348720  .00063975  00000-0  16365-2 0  9998,2 52183  97.3514 178.4364 0005708  79.3069 280.8819 15.39186239 56225,2022-033AC,52183,6826.651,93.556,452.413,444.62,1,
GENERATED VIA SPACETRACK.ORG API,18 SPCS,52183,SPACEBEE-133,PAYLOAD,U,22033AC,2023/4/5 19:09,276576,15.39255139,0.0005601,97.351,179.0236,76.4754,283.7116,0,999,5631,0.0015233,0.00059644,0,3881153,0 SPACEBEE-133,1 52183U 22033AC  23095.79857959  .00059644  00000-0  15233-2 0  9991,2 52183  97.3510 179.0236 0005601  76.4754 283.7116 15.39255139 56315,2022-033AC,52183,6826.448,93.552,452.136,444.489,1,
GENERATED VIA SPACETRACK.ORG API,18 SPCS,52183,SPACEBEE-133,PAYLOAD,U,22033AC,2023/4/6 4:31,266528,15.3930509,0.0005532,97.3511,179.4144,76.0505,284.1356,0,999,5636,0.0015163,0.00059464,0,3881732,0 SPACEBEE-133,1 52183U 22033AC  23096.18862577  .00059464  00000-0  15163-2 0  9999,2 52183  97.3511 179.4144 0005532  76.0505 284.1356 15.39305090 56369,2022-033AC,52183,6826.3,93.549,451.941,444.389,1,
GENERATED VIA SPACETRACK.ORG API,18 SPCS,52183,SPACEBEE-133,PAYLOAD,U,22033AC,2023/4/6 4:31,266528,15.3930509,0.0005532,97.3511,179.4144,76.0505,284.1356,0,999,5637,0.0015163,0.00059464,0,3881771,0 SPACEBEE-133,1 52183U 22033AC  23096.18862577  .00059464  00000-0  15163-2 0  9999,2 52183  97.3511 179.4144 0005532  76.0505 284.1356 15.39305090 56370,2022-033AC,52183,6826.3,93.549,451.941,444.389,1,
GENERATED VIA SPACETRACK.ORG API,18 SPCS,52183,SPACEBEE-133,PAYLOAD,U,22033AC,2023/4/7 5:29,930912,15.3943325,0.0005468,97.351,180.4586,72.0061,288.178,0,999,5652,0.001546,0.00060896,0,3882308,0 SPACEBEE-133,1 52183U 22033AC  23097.22869133  .00060896  00000-0  15460-2 0  9991,2 52183  97.3510 180.4586 0005468  72.0061 288.1780 15.39433250 56524,2022-033AC,52183,6825.921,93.541,451.519,444.054,1,
GENERATED VIA SPACETRACK.ORG API,18 SPCS,52183,SPACEBEE-133,PAYLOAD,U,22033AC,2023/4/7 5:29,930912,15.3943325,0.0005468,97.351,180.4586,72.0061,288.178,0,999,5653,0.001546,0.00060896,0,3882626,0 SPACEBEE-133,1 52183U 22033AC  23097.22869133  .00060896  00000-0  15460-2 0  9991,2 52183  97.3510 180.4586 0005468  72.0061 288.1780 15.39433250 56535,2022-033AC,52183,6825.921,93.541,451.519,444.054,1,
GENERATED VIA SPACETRACK.ORG API,18 SPCS,52183,SPACEBEE-133,PAYLOAD,U,22033AC,2023/4/8 4:53,660832,15.39543062,0.0005331,97.3505,181.4373,68.4228,291.7585,0,999,5667,0.0014035,0.00055433,0,3883482,0 SPACEBEE-133,1 52183U 22033AC  23098.20367663  .00055433  00000-0  14035-2 0  9999,2 52183  97.3505 181.4373 0005331  68.4228 291.7585 15.39543062 56678,2022-033AC,52183,6825.597,93.534,451.1,443.823,1,
GENERATED VIA SPACETRACK.ORG API,18 SPCS,52183,SPACEBEE-133,PAYLOAD,U,22033AC,2023/4/8 4:53,660832,15.39543062,0.0005331,97.3505,181.4373,68.4228,291.7585,0,999,5668,0.0014035,0.00055433,0,3883527,0 SPACEBEE-133,1 52183U 22033AC  23098.20367663  .00055433  00000-0  14035-2 0  9999,2 52183  97.3505 181.4373 0005331  68.4228 291.7585 15.39543062 56689,2022-033AC,52183,6825.597,93.534,451.1,443.823,1,
